SARSAT 7 (NOAA 15)      
1 25338U 98030A   24162.92437327  .00000441  00000+0  20059-3 0  9990
2 25338  98.5684 190.1821 0009937 350.1713   9.9271 14.26599957356293
GPS BIIR-08             
1 27663U 03005A   24162.93965441 -.00000019  00000+0  00000+0 0  9997
2 27663  55.1071 244.2449 0136518  47.3639 119.7236  2.00575231156545
GPS BIIR-11             
1 28190U 04009A   24162.48076337 -.00000070  00000+0  00000+0 0  9992
2 28190  55.4605 305.3069 0097749 147.8015 207.6828  2.00559502148166
GPS BIIR-13             
1 28474U 04045A   24162.95629434 -.00000102  00000+0  00000+0 0  9997
2 28474  55.4278 354.4583 0161818 292.3363  91.8634  2.00561193143661
SARSAT 10 (NOAA 18)     
1 28654U 05018A   24162.90695892  .00000421  00000+0  24812-3 0  9998
2 28654  98.8744 239.9239 0015297  82.6560 277.6350 14.13228144982284
GPS BIIR-14M            
1 28874U 05038A   24162.50504779 -.00000068  00000+0  00000+0 0  9990
2 28874  55.5067 302.7671 0136042 284.1220 113.0200  2.00555923137065
METEOSAT-9 (MSG-2)      
1 28912U 05049B   24162.90642785  .00000123  00000+0  00000+0 0  9990
2 28912   7.6734  60.9258 0001260 358.1379 212.7096  1.00275410 67668
GOES 13                 
1 29155U 06018A   24162.81716056  .00000015  00000+0  00000+0 0  9990
2 29155   2.6107  85.3616 0082361 255.1095 113.6873  0.99104410 35977
GPS BIIR-16M            
1 29601U 06052A   24162.51899325 -.00000015  00000+0  00000+0 0  9993
2 29601  55.1374 243.2388 0085208  83.0313 278.0013  2.00567438128632
GPS BIIR-17M            
1 32260U 07047A   24162.32203198  .00000000  00000+0  00000+0 0  9992
2 32260  53.6040 110.5341 0154818  75.1475 286.5254  2.00564489122032
GPS BIIR-18M            
1 32384U 07062A   24162.59103932 -.00000069  00000+0  00000+0 0  9996
2 32384  55.6460 303.6252 0028417 150.9008 171.4391  2.00574556120737
SARSAT 12 (NOAA 19)     
1 33591U 09005A   24162.92824196  .00000364  00000+0  21978-3 0  9993
2 33591  99.0472 218.6613 0012928 312.8019  47.2065 14.13024006790480
GOES 14                 
1 35491U 09033A   24162.90750874 -.00000065  00000+0  00000+0 0  9992
2 35491   0.3264 104.7027 0003588 346.6912  26.4726  1.00272911 54734
GOES 15                 
1 36411U 10008A   24162.94128750  .00000039  00000+0  00000+0 0  9995
2 36411   0.2857  89.5754 0001822 108.0970 102.3486  1.00268378 52258
GSAT0101 (GALILEO-PFM)  
1 37846U 11060A   24162.09768846 -.00000098  00000+0  00000+0 0  9995
2 37846  57.1288   1.7240 0003622  47.1597 312.8993  1.70476010 78557
GSAT0102 (GALILEO-FM2)  
1 37847U 11060B   24162.61561876 -.00000098  00000+0  00000+0 0  9998
2 37847  57.1297   1.7102 0003390  12.6088 351.0132  1.70475483 78574
LUCH 5A                 
1 37951U 11074B   24162.60440569 -.00000051  00000+0  00000+0 0  9992
2 37951   6.8695  85.0777 0003893   4.3273 194.4714  1.00271798 45663
METEOSAT-10 (MSG-3)     
1 38552U 12035B   24162.92908630 -.00000004  00000+0  00000+0 0  9999
2 38552   2.9525  60.9506 0001605 292.6391 240.9454  1.00277687 43472
SARSAT 13 (METOP-B)     
1 38771U 12049A   24162.90881058  .00000313  00000+0  16242-3 0  9990
2 38771  98.6274 220.2731 0001746  80.3081 279.8294 14.21550742608667
GPS BIIF-3              
1 38833U 12053A   24162.91728448  .00000044  00000+0  00000+0 0  9990
2 38833  53.5169 173.7251 0151500  55.6970 305.7513  2.00558620 84673
GSAT0103 (GALILEO-FM3)  
1 38857U 12055A   24161.55020156  .00000014  00000+0  00000+0 0  9995
2 38857  55.4043 121.8153 0005498 281.2798  78.6030  1.70473673 72436
GPS BIIF-4              
1 39166U 13023A   24162.28173934 -.00000065  00000+0  00000+0 0  9996
2 39166  55.1194 298.8597 0123960  44.8442 316.1400  2.00562928 81106
INSAT-3D                
1 39216U 13038B   24162.87380833 -.00000156  00000+0  00000+0 0  9992
2 39216   0.0245  93.9869 0000921 171.6276  30.7633  1.00271423 39699
GPS BIIF-5              
1 39533U 14008A   24162.78143507  .00000041  00000+0  00000+0 0  9999
2 39533  53.5996 179.3274 0073124 220.5329 138.9531  2.00568155 74918
LUCH 5V                 
1 39727U 14023A   24162.87633199 -.00000269  00000+0  00000+0 0  9995
2 39727   3.2830  76.0934 0001928  49.5523 184.2691  1.00269037 36977
GPS BIIF-6              
1 39741U 14026A   24162.06125205 -.00000102  00000+0  00000+0 0  9995
2 39741  56.7103   0.1430 0031165 317.0331  42.7520  2.00568987 73757
GPS BIIF-7              
1 40105U 14045A   24162.15453161  .00000011  00000+0  00000+0 0  9995
2 40105  54.9284 117.8894 0025354 115.2884 244.9368  2.00565882 71291
GSAT0201 (GALILEO 5)    
1 40128U 14050A   24162.08052510 -.00000092  00000+0  00000+0 0  9991
2 40128  49.6679 303.3494 1611386 150.9663 219.0644  1.85519508 64648
GSAT0202 (GALILEO 6)    
1 40129U 14050B   24162.33884457 -.00000092  00000+0  00000+0 0  9993
2 40129  49.6845 302.4157 1610134 151.7781 217.9975  1.85520137 66815
GPS BIIF-8              
1 40294U 14068A   24162.02673827 -.00000072  00000+0  00000+0 0  9996
2 40294  56.4151  59.5195 0053650  61.7767 298.7981  2.00559310 70422
GLONASS-K 2             
1 40315U 14075A   24161.15587293  .00000033  00000+0  00000+0 0  9998
2 40315  63.6210 215.9557 0020694 210.3513 149.6115  2.13101504 74121
GPS BIIF-9              
1 40534U 15013A   24162.65689052 -.00000010  00000+0  00000+0 0  9992
2 40534  53.3452 234.6687 0087625  29.7416 330.8265  2.00565893 67056
GSAT0203 (GALILEO 7)    
1 40544U 15017A   24161.29036210 -.00000100  00000+0  00000+0 0  9998
2 40544  56.9240   1.6810 0001459 273.1773  86.8352  1.70475985 56627
GSAT0204 (GALILEO 8)    
1 40545U 15017B   24160.95796315 -.00000100  00000+0  00000+0 0  9990
2 40545  56.9301   1.7054 0001199 231.1308 128.8884  1.70475662 19668
GPS BIIF-10             
1 40730U 15033A   24162.32011828 -.00000065  00000+0  00000+0 0  9996
2 40730  54.6028 297.3349 0093972  19.6840 340.6667  2.00567418 65215
METEOSAT-11 (MSG-4)     
1 40732U 15034A   24162.93091378  .00000064  00000+0  00000+0 0  9992
2 40732   1.3713  68.9578 0001695 152.8811  22.4348  1.00277104   468
GSAT0205 (GALILEO 9)    
1 40889U 15045A   24160.72618803 -.00000001  00000+0  00000+0 0  9992
2 40889  55.2209 242.0044 0003193  30.5440 329.5467  1.70473965 54425
GSAT0206 (GALILEO 10)   
1 40890U 15045B   24158.01390575  .00000004  00000+0  00000+0 0  9998
2 40890  55.2210 242.0747 0001124 354.7070   5.3540  1.70473725 54404
GPS BIIF-11             
1 41019U 15062A   24162.37877334 -.00000073  00000+0  00000+0 0  9995
2 41019  56.3957  59.3588 0095020 225.0795 134.1802  2.00562509 63058
ELEKTRO-L 2             
1 41105U 15074A   24162.92621456 -.00000116  00000+0  00000+0 0  9995
2 41105   4.8272  79.5419 0000711 175.1605 324.0348  1.00272106 31125
GSAT0209 (GALILEO 12)   
1 41174U 15079A   24161.70304325  .00000015  00000+0  00000+0 0  9991
2 41174  55.4227 121.5202 0005287 315.1523  44.7502  1.70474124 52200
GSAT0208 (GALILEO 11)   
1 41175U 15079B   24162.50939063  .00000019  00000+0  00000+0 0  9998
2 41175  55.4239 121.4960 0004576 315.1430  44.7694  1.70474105 52639
GPS BIIF-12             
1 41328U 16007A   24162.45925949  .00000015  00000+0  00000+0 0  9998
2 41328  55.1240 118.7180 0079814 238.9020 120.2776  2.00562293 61063
GSAT0211 (GALILEO 14)   
1 41549U 16030A   24161.45912359 -.00000004  00000+0  00000+0 0  9998
2 41549  55.3678 241.9900 0002709 310.1269  49.9217  1.70474011 50073
GSAT0210 (GALILEO 13)   
1 41550U 16030B   24159.99065173  .00000002  00000+0  00000+0 0  9996
2 41550  55.3677 242.0314 0002542 264.2850  95.7570  1.70474019 50063
INSAT-3DR               
1 41752U 16054A   24162.58592142 -.00000077  00000+0  00000+0 0  9999
2 41752   0.0877  95.4165 0010456 174.7184 274.1987  1.00271843 28432
GSAT0207 (GALILEO 15)   
1 41859U 16069A   24162.58327300  .00000019  00000+0  00000+0 0  9990
2 41859  55.0877 121.4991 0005533 303.7154  56.1816  1.70474100 46840
GSAT0212 (GALILEO 16)   
1 41860U 16069B   24161.85098706  .00000015  00000+0  00000+0 0  9992
2 41860  55.0853 121.5158 0004132 325.5359  34.3833  1.70474208 47088
GSAT0213 (GALILEO 17)   
1 41861U 16069C   24161.63274575  .00000014  00000+0  00000+0 0  9998
2 41861  55.0872 121.5284 0005491 287.1154  72.7694  1.70472994 47075
GSAT0214 (GALILEO 18)   
1 41862U 16069D   24161.77815085  .00000015  00000+0  00000+0 0  9992
2 41862  55.0860 121.5180 0004506 291.3819  68.5157  1.70474302 47071
GOES 16                 
1 41866U 16071A   24162.83521687 -.00000248  00000+0  00000+0 0  9998
2 41866   0.0634 256.0830 0000214 131.2770  97.7793  1.00272499 27726
GSAT-17                 
1 42815U 17040B   24162.57371229 -.00000258  00000+0  00000+0 0  9997
2 42815   0.0156 282.6584 0002219  21.1948 255.5574  1.00270047 25403
GSAT0215 (GALILEO 19)   
1 43055U 17079A   24161.68135142 -.00000004  00000+0  00000+0 0  9998
2 43055  55.3444 241.8058 0002050 251.4495 108.6006  1.70474856 40411
GSAT0216 (GALILEO 20)   
1 43056U 17079B   24160.21331282  .00000001  00000+0  00000+0 0  9996
2 43056  55.3453 241.8461 0003576 267.5721  92.4587  1.70474874 40407
GSAT0217 (GALILEO 21)   
1 43057U 17079C   24162.19351701 -.00000006  00000+0  00000+0 0  9990
2 43057  55.3426 241.7903 0003309 279.1831  80.8513  1.70474778 40428
GSAT0218 (GALILEO 22)   
1 43058U 17079D   24160.06724160  .00000002  00000+0  00000+0 0  9993
2 43058  55.3437 241.8464 0004014 265.9917  94.0339  1.70474861 40387
GOES 17                 
1 43226U 18022A   24162.90820493 -.00000090  00000+0  00000+0 0  9998
2 43226   0.0387 183.1525 0000512 284.7115  14.1131  1.00272050 23045
GSAT0221 (GALILEO 25)   
1 43564U 18060A   24160.55450440 -.00000099  00000+0  00000+0 0  9994
2 43564  57.3039   1.6992 0003031 302.0500  57.9514  1.70475818 36589
GSAT0222 (GALILEO 26)   
1 43565U 18060B   24161.94621306 -.00000098  00000+0  00000+0 0  9999
2 43565  57.3077   1.6636 0001238 235.2809 124.7361  1.70475578 36646
